NORAD_CAT_ID,OBJECT_NAME,OBJECT_TYPE,EPOCH,MEAN_MOTION,ECCENTRICITY,INCLINATION,RA_OF_ASC_NODE,ARG_OF_PERICENTER,MEAN_ANOMALY,BSTAR,MEAN_MOTION_DOT,MEAN_MOTION_DDOT,TLE_LINE0,TLE_LINE1,TLE_LINE2,SEMIMAJOR_AXIS,PERIOD,APOGEE,PERIGEE,DECAYED
55279.0,STARLINK-5323,PAYLOAD,2024-01-13 18:39:12,14.98332544,0.0002498,69.9988,226.025,264.8744,95.213,6.0508e-05,6.29e-06,0.0,0 STARLINK-5323,1 55279U 23010L   24013.77722837  .00000629  00000-0  60508-4 0  9997,2 55279  69.9988 226.0250 0002498 264.8744  95.2130 14.98332544 54747,6950.185,96.107,573.786,570.314,0.0
55279.0,STARLINK-5323,PAYLOAD,2024-01-13 23:27:36,14.98335197,0.0002514,69.9988,225.52,268.5247,91.5624,8.6042e-05,9.34e-06,0.0,0 STARLINK-5323,1 55279U 23010L   24013.97750581  .00000934  00000-0  86042-4 0  9996,2 55279  69.9988 225.5200 0002514 268.5247  91.5624 14.98335197 55097,6950.177,96.107,573.789,570.295,0.0
55279.0,STARLINK-5323,PAYLOAD,2024-01-14 18:41:13,14.98331236,0.000247,69.9989,223.5003,268.0807,92.0069,6.3765e-05,6.68e-06,0.0,0 STARLINK-5323,1 55279U 23010L   24014.77862825  .00000668  00000-0  63765-4 0  9991,2 55279  69.9989 223.5003 0002470 268.0807  92.0069 14.98331236 54891,6950.189,96.107,573.771,570.337,0.0
55279.0,STARLINK-5323,PAYLOAD,2024-01-14 21:53:29,14.98331297,0.0002479,69.9988,223.1634,267.9318,92.1557,6.1868e-05,6.45e-06,0.0,0 STARLINK-5323,1 55279U 23010L   24014.91214823  .00000645  00000-0  61868-4 0  9993,2 55279  69.9988 223.1634 0002479 267.9318  92.1557 14.98331297 55239,6950.189,96.107,573.777,570.331,0.0
55279.0,STARLINK-5323,PAYLOAD,2024-01-14 23:29:37,14.98331926,0.0002478,69.9988,222.9952,267.9918,92.0958,6.7264e-05,7.1e-06,0.0,0 STARLINK-5323,1 55279U 23010L   24014.97890764  .00000710  00000-0  67264-4 0  9992,2 55279  69.9988 222.9952 0002478 267.9918  92.0958 14.98331926 55248,6950.187,96.107,573.774,570.33,0.0
55279.0,STARLINK-5323,PAYLOAD,2024-01-15 18:43:14,14.98331553,0.0002432,69.9989,220.975,269.9478,90.1402,1.2521e-05,5.6e-07,0.0,0 STARLINK-5323,1 55279U 23010L   24015.78002866  .00000056  00000-0  12521-4 0  9999,2 55279  69.9989 220.9750 0002432 269.9478  90.1402 14.98331553 55043,6950.188,96.107,573.743,570.363,0.0
55279.0,STARLINK-5323,PAYLOAD,2024-01-15 20:19:22,14.98330681,0.0002449,69.9989,220.8068,270.0881,89.9997,-1.3022e-07,-9.4e-07,0.0,0 STARLINK-5323,1 55279U 23010L   24015.84678938 -.00000094  00000-0 -13022-6 0  9998,2 55279  69.9989 220.8068 0002449 270.0881  89.9997 14.98330681 55375,6950.191,96.107,573.758,570.354,0.0
55279.0,STARLINK-5323,PAYLOAD,2024-01-16 13:56:51,14.98332238,0.0002535,69.9987,218.9553,272.9754,87.1114,4.9992e-05,5.04e-06,0.0,0 STARLINK-5323,1 55279U 23010L   24016.58114677  .00000504  00000-0  49992-4 0  9992,2 55279  69.9987 218.9553 0002535 272.9754  87.1114 14.98332238 55489,6950.186,96.107,573.813,570.289,0.0
55279.0,STARLINK-5323,PAYLOAD,2024-01-16 18:45:15,14.98332849,0.0002527,69.9988,218.4501,272.9985,87.0885,5.4687e-05,5.6e-06,0.0,0 STARLINK-5323,1 55279U 23010L   24016.78142602  .00000560  00000-0  54687-4 0  9992,2 55279  69.9988 218.4501 0002527 272.9985  87.0885 14.98332849 55195,6950.184,96.107,573.805,570.293,0.0
55279.0,STARLINK-5323,PAYLOAD,2024-01-16 21:57:31,14.9833336,0.0002523,69.9988,218.1136,273.1568,86.9303,5.8939e-05,6.1e-06,0.0,0 STARLINK-5323,1 55279U 23010L   24016.91494534  .00000610  00000-0  58939-4 0  9991,2 55279  69.9988 218.1136 0002523 273.1568  86.9303 14.98333360 55532,6950.183,96.107,573.801,570.294,0.0
55279.0,STARLINK-5323,PAYLOAD,2024-01-17 13:58:52,14.98330356,0.0002495,69.9992,216.4306,274.3103,85.7771,5.9033e-05,6.11e-06,0.0,0 STARLINK-5323,1 55279U 23010L   24017.58254721  .00000611  00000-0  59033-4 0  9994,2 55279  69.9992 216.4306 0002495 274.3103  85.7771 14.98330356 55632,6950.192,96.107,573.791,570.323,0.0
55279.0,STARLINK-5323,PAYLOAD,2024-01-17 20:23:24,14.98330685,0.0002503,69.9992,215.7576,274.8382,85.2491,5.8646e-05,6.07e-06,0.0,0 STARLINK-5323,1 55279U 23010L   24017.84958706  .00000607  00000-0  58646-4 0  9991,2 55279  69.9992 215.7576 0002503 274.8382  85.2491 14.98330685 55355,6950.191,96.107,573.795,570.316,0.0
55279.0,STARLINK-5323,PAYLOAD,2024-01-17 21:59:32,14.98330937,0.0002498,69.9992,215.5893,274.9281,85.1593,6.0136e-05,6.25e-06,0.0,0 STARLINK-5323,1 55279U 23010L   24017.91634673  .00000625  00000-0  60136-4 0  9990,2 55279  69.9992 215.5893 0002498 274.9281  85.1593 14.98330937 55685,6950.19,96.107,573.791,570.319,0.0
55279.0,STARLINK-5323,PAYLOAD,2024-01-18 14:00:52,14.98332674,0.0002474,69.9993,213.9064,276.0136,84.0741,3.4217e-05,3.15e-06,0.0,0 STARLINK-5323,1 55279U 23010L   24018.58394594  .00000315  00000-0  34217-4 0  9996,2 55279  69.9993 213.9064 0002474 276.0136  84.0741 14.98332674 55788,6950.185,96.107,573.769,570.33,0.0
55279.0,STARLINK-5323,PAYLOAD,2024-01-18 22:01:33,14.98332201,0.0002489,69.9992,213.0646,275.2272,84.8603,2.4003e-05,1.93e-06,0.0,0 STARLINK-5323,1 55279U 23010L   24018.91774581  .00000193  00000-0  24003-4 0  9997,2 55279  69.9992 213.0646 0002489 275.2272  84.8603 14.98332201 55839,6950.186,96.107,573.781,570.321,0.0
55279.0,STARLINK-5323,PAYLOAD,2024-01-19 12:26:48,14.98301824,0.00017,70.0029,211.5577,234.4795,125.6206,-0.00024436,-3.005e-05,0.0,0 STARLINK-5323,1 55279U 23010L   24019.51861945 -.00003005  00000-0 -24436-3 0  9991,2 55279  70.0029 211.5577 0001700 234.4795 125.6206 14.98301824 55606,6950.28,96.109,573.327,570.963,0.0
55279.0,STARLINK-5323,PAYLOAD,2024-01-19 14:02:54,14.9832657,0.0002197,69.9991,211.3815,255.0115,105.0801,2.9297e-05,2.57e-06,0.0,0 STARLINK-5323,1 55279U 23010L   24019.58535876  .00000257  00000-0  29297-4 0  9994,2 55279  69.9991 211.3815 0002197 255.0115 105.0801 14.98326570 55934,6950.203,96.107,573.595,570.542,0.0
55279.0,STARLINK-5323,PAYLOAD,2024-01-19 18:51:19,14.98327419,0.0002485,69.9992,210.877,267.9131,92.1743,4.6053e-05,4.57e-06,0.0,0 STARLINK-5323,1 55279U 23010L   24019.78563889  .00000457  00000-0  46053-4 0  9992,2 55279  69.9992 210.8770 0002485 267.9131  92.1743 14.98327419 55641,6950.201,96.107,573.793,570.339,0.0
55279.0,STARLINK-5323,PAYLOAD,2024-01-19 22:03:35,14.98327582,0.0002464,69.9992,210.5403,266.9839,93.1038,4.8517e-05,4.86e-06,0.0,0 STARLINK-5323,1 55279U 23010L   24019.91915922  .00000486  00000-0  48517-4 0  9995,2 55279  69.9992 210.5403 0002464 266.9839  93.1038 14.98327582 55988,6950.2,96.107,573.778,570.353,0.0
55279.0,STARLINK-5323,PAYLOAD,2024-01-20 14:04:55,14.98331712,0.000264,69.9988,208.8561,273.3575,86.7282,0.00010025,1.103e-05,0.0,0 STARLINK-5323,1 55279U 23010L   24020.58675705  .00001103  00000-0  10025-3 0  9991,2 55279  69.9988 208.8561 0002640 273.3575  86.7282 14.98331712 56084,6950.188,96.107,573.887,570.218,0.0
55279.0,STARLINK-5323,PAYLOAD,2024-01-20 18:53:19,14.98332419,0.0002666,69.9988,208.3513,272.5488,87.5366,9.9846e-05,1.099e-05,0.0,0 STARLINK-5323,1 55279U 23010L   24020.78703665  .00001099  00000-0  99846-4 0  9993,2 55279  69.9988 208.3513 0002666 272.5488  87.5366 14.98332419 55792,6950.185,96.107,573.903,570.197,0.0
55279.0,STARLINK-5323,PAYLOAD,2024-01-20 22:05:35,14.98334413,0.0002631,69.9989,208.0148,271.9489,88.1369,0.00012346,1.381e-05,0.0,0 STARLINK-5323,1 55279U 23010L   24020.92055479  .00001381  00000-0  12346-3 0  9995,2 55279  69.9989 208.0148 0002631 271.9489  88.1369 14.98334413 56135,6950.179,96.107,573.873,570.216,0.0
55279.0,STARLINK-5323,PAYLOAD,2024-01-21 18:55:20,14.98342542,0.0002664,69.999,205.8268,271.0982,88.9871,0.00014312,1.616e-05,0.0,0 STARLINK-5323,1 55279U 23010L   24021.78843058  .00001616  00000-0  14312-3 0  9994,2 55279  69.9990 205.8268 0002664 271.0982  88.9871 14.98342542 55946,6950.154,96.106,573.871,570.168,0.0
55279.0,STARLINK-5323,PAYLOAD,2024-01-21 22:07:36,14.98344504,0.0002646,69.9991,205.4901,270.9252,89.1604,0.00016113,1.831e-05,0.0,0 STARLINK-5323,1 55279U 23010L   24021.92194762  .00001831  00000-0  16113-3 0  9991,2 55279  69.9991 205.4901 0002646 270.9252  89.1604 14.98344504 56280,6950.148,96.106,573.852,570.174,0.0
55279.0,STARLINK-5323,PAYLOAD,2024-01-22 18:57:21,14.98340581,0.0002527,69.9996,203.3022,270.9059,89.181,5.3437e-05,5.45e-06,0.0,0 STARLINK-5323,1 55279U 23010L   24022.78982691  .00000545  00000-0  53437-4 0  9994,2 55279  69.9996 203.3022 0002527 270.9059  89.1810 14.98340581 56098,6950.16,96.106,573.781,570.269,0.0
55279.0,STARLINK-5323,PAYLOAD,2024-01-22 22:09:37,14.98340733,0.000253,69.9996,202.9656,271.3675,88.7194,4.9961e-05,5.03e-06,0.0,0 STARLINK-5323,1 55279U 23010L   24022.92334548  .00000503  00000-0  49961-4 0  9993,2 55279  69.9996 202.9656 0002530 271.3675  88.7194 14.98340733 56436,6950.16,96.106,573.783,570.266,0.0
55279.0,STARLINK-5323,PAYLOAD,2024-01-23 22:11:37,14.98338907,0.0002448,70.0002,200.4414,273.7053,86.3826,-2.5106e-05,-3.93e-06,0.0,0 STARLINK-5323,1 55279U 23010L   24023.92474192 -.00000393  00000-0 -25106-4 0  9998,2 55279  70.0002 200.4414 0002448 273.7053  86.3826 14.98338907 56588,6950.165,96.106,573.732,570.329,0.0
55279.0,STARLINK-5323,PAYLOAD,2024-01-24 14:12:58,14.98332914,0.000244,70.0002,198.7592,266.2839,93.8041,-1.3635e-05,-2.56e-06,0.0,0 STARLINK-5323,1 55279U 23010L   24024.59234292 -.00000256  00000-0 -13635-4 0  9999,2 55279  70.0002 198.7592 0002440 266.2839  93.8041 14.98332914 56680,6950.184,96.107,573.745,570.353,0.0
55279.0,STARLINK-5323,PAYLOAD,2024-01-24 20:37:30,14.98331526,0.0002467,70.0002,198.0858,268.2979,91.7897,-3.2073e-05,-4.76e-06,0.0,0 STARLINK-5323,1 55279U 23010L   24024.85938368 -.00000476  00000-0 -32073-4 0  9994,2 55279  70.0002 198.0858 0002467 268.2979  91.7897 14.98331526 56408,6950.188,96.107,573.768,570.339,0.0
55279.0,STARLINK-5323,PAYLOAD,2024-01-25 14:14:59,14.98332484,0.0002529,70.0002,196.2346,265.4467,94.6403,2.0979e-05,1.57e-06,0.0,0 STARLINK-5323,1 55279U 23010L   24025.59374040  .00000157  00000-0  20979-4 0  9993,2 55279  70.0002 196.2346 0002529 265.4467  94.6403 14.98332484 56836,6950.185,96.107,573.808,570.293,0.0
